<?xml version="1.0" encoding="UTF-8"?>
<ndm xmlns:xsi="http://www.w3.org/2001/XMLSchema-instance" xsi:noNamespaceSchemaLocation="https://sanaregistry.org/r/ndmxml_unqualified/ndmxml-2.0.0-master-2.0.xsd">
<omm id="CCSDS_OMM_VERS" version="2.0">
<header><CREATION_DATE/><ORIGINATOR/></header><body><segment><metadata><OBJECT_NAME>ONEWEB-0509</OBJECT_NAME><OBJECT_ID>2022-138Q</OBJECT_ID><CENTER_NAME>EARTH</CENTER_NAME><REF_FRAME>TEME</REF_FRAME><TIME_SYSTEM>UTC</TIME_SYSTEM><MEAN_ELEMENT_THEORY>SGP4</MEAN_ELEMENT_THEORY></metadata><data><meanElements><EPOCH>2023-08-23T08:02:18.884256</EPOCH><MEAN_MOTION>13.19726376</MEAN_MOTION><ECCENTRICITY>.0001769</ECCENTRICITY><INCLINATION>87.9289</INCLINATION><RA_OF_ASC_NODE>149.7089</RA_OF_ASC_NODE><ARG_OF_PERICENTER>81.4635</ARG_OF_PERICENTER><MEAN_ANOMALY>278.6698</MEAN_ANOMALY></meanElements><tleParameters><EPHEMERIS_TYPE>0</EPHEMERIS_TYPE><CLASSIFICATION_TYPE>U</CLASSIFICATION_TYPE><NORAD_CAT_ID>54127</NORAD_CAT_ID><ELEMENT_SET_NO>999</ELEMENT_SET_NO><REV_AT_EPOCH>4197</REV_AT_EPOCH><BSTAR>.59985E-3</BSTAR><MEAN_MOTION_DOT>.253E-5</MEAN_MOTION_DOT><MEAN_MOTION_DDOT>0</MEAN_MOTION_DDOT></tleParameters></data></segment></body></omm>
<omm id="CCSDS_OMM_VERS" version="2.0">
<header><CREATION_DATE/><ORIGINATOR/></header><body><segment><metadata><OBJECT_NAME>ONEWEB-0510</OBJECT_NAME><OBJECT_ID>2022-138R</OBJECT_ID><CENTER_NAME>EARTH</CENTER_NAME><REF_FRAME>TEME</REF_FRAME><TIME_SYSTEM>UTC</TIME_SYSTEM><MEAN_ELEMENT_THEORY>SGP4</MEAN_ELEMENT_THEORY></metadata><data><meanElements><EPOCH>2023-08-21T18:20:01.042944</EPOCH><MEAN_MOTION>13.20772968</MEAN_MOTION><ECCENTRICITY>.0002181</ECCENTRICITY><INCLINATION>87.9277</INCLINATION><RA_OF_ASC_NODE>119.5168</RA_OF_ASC_NODE><ARG_OF_PERICENTER>88.2808</ARG_OF_PERICENTER><MEAN_ANOMALY>271.8575</MEAN_ANOMALY></meanElements><tleParameters><EPHEMERIS_TYPE>0</EPHEMERIS_TYPE><CLASSIFICATION_TYPE>U</CLASSIFICATION_TYPE><NORAD_CAT_ID>54128</NORAD_CAT_ID><ELEMENT_SET_NO>999</ELEMENT_SET_NO><REV_AT_EPOCH>4416</REV_AT_EPOCH><BSTAR>.23397E-3</BSTAR><MEAN_MOTION_DOT>.108E-5</MEAN_MOTION_DOT><MEAN_MOTION_DDOT>0</MEAN_MOTION_DDOT></tleParameters></data></segment></body></omm>
<omm id="CCSDS_OMM_VERS" version="2.0">
<header><CREATION_DATE/><ORIGINATOR/></header><body><segment><metadata><OBJECT_NAME>ONEWEB-0511</OBJECT_NAME><OBJECT_ID>2022-138S</OBJECT_ID><CENTER_NAME>EARTH</CENTER_NAME><REF_FRAME>TEME</REF_FRAME><TIME_SYSTEM>UTC</TIME_SYSTEM><MEAN_ELEMENT_THEORY>SGP4</MEAN_ELEMENT_THEORY></metadata><data><meanElements><EPOCH>2023-08-23T07:56:13.657632</EPOCH><MEAN_MOTION>13.19728905</MEAN_MOTION><ECCENTRICITY>.0001471</ECCENTRICITY><INCLINATION>87.9288</INCLINATION><RA_OF_ASC_NODE>149.7092</RA_OF_ASC_NODE><ARG_OF_PERICENTER>71.1821</ARG_OF_PERICENTER><MEAN_ANOMALY>288.9471</MEAN_ANOMALY></meanElements><tleParameters><EPHEMERIS_TYPE>0</EPHEMERIS_TYPE><CLASSIFICATION_TYPE>U</CLASSIFICATION_TYPE><NORAD_CAT_ID>54129</NORAD_CAT_ID><ELEMENT_SET_NO>999</ELEMENT_SET_NO><REV_AT_EPOCH>4200</REV_AT_EPOCH><BSTAR>.33225E-3</BSTAR><MEAN_MOTION_DOT>.146E-5</MEAN_MOTION_DOT><MEAN_MOTION_DDOT>0</MEAN_MOTION_DDOT></tleParameters></data></segment></body></omm>
<omm id="CCSDS_OMM_VERS" version="2.0">
<header><CREATION_DATE/><ORIGINATOR/></header><body><segment><metadata><OBJECT_NAME>ONEWEB-0512</OBJECT_NAME><OBJECT_ID>2022-138T</OBJECT_ID><CENTER_NAME>EARTH</CENTER_NAME><REF_FRAME>TEME</REF_FRAME><TIME_SYSTEM>UTC</TIME_SYSTEM><MEAN_ELEMENT_THEORY>SGP4</MEAN_ELEMENT_THEORY></metadata><data><meanElements><EPOCH>2023-08-23T07:44:07.489824</EPOCH><MEAN_MOTION>13.19726508</MEAN_MOTION><ECCENTRICITY>.0001692</ECCENTRICITY><INCLINATION>87.9288</INCLINATION><RA_OF_ASC_NODE>149.7109</RA_OF_ASC_NODE><ARG_OF_PERICENTER>96.0051</ARG_OF_PERICENTER><MEAN_ANOMALY>264.1275</MEAN_ANOMALY></meanElements><tleParameters><EPHEMERIS_TYPE>0</EPHEMERIS_TYPE><CLASSIFICATION_TYPE>U</CLASSIFICATION_TYPE><NORAD_CAT_ID>54130</NORAD_CAT_ID><ELEMENT_SET_NO>999</ELEMENT_SET_NO><REV_AT_EPOCH>4197</REV_AT_EPOCH><BSTAR>.21799E-3</BSTAR><MEAN_MOTION_DOT>.1E-5</MEAN_MOTION_DOT><MEAN_MOTION_DDOT>0</MEAN_MOTION_DDOT></tleParameters></data></segment></body></omm>
<omm id="CCSDS_OMM_VERS" version="2.0">
<header><CREATION_DATE/><ORIGINATOR/></header><body><segment><metadata><OBJECT_NAME>ONEWEB-0513</OBJECT_NAME><OBJECT_ID>2022-138U</OBJECT_ID><CENTER_NAME>EARTH</CENTER_NAME><REF_FRAME>TEME</REF_FRAME><TIME_SYSTEM>UTC</TIME_SYSTEM><MEAN_ELEMENT_THEORY>SGP4</MEAN_ELEMENT_THEORY></metadata><data><meanElements><EPOCH>2023-08-23T07:03:08.652096</EPOCH><MEAN_MOTION>13.19752273</MEAN_MOTION><ECCENTRICITY>.0001298</ECCENTRICITY><INCLINATION>87.9286</INCLINATION><RA_OF_ASC_NODE>149.7209</RA_OF_ASC_NODE><ARG_OF_PERICENTER>100.7371</ARG_OF_PERICENTER><MEAN_ANOMALY>259.3908</MEAN_ANOMALY></meanElements><tleParameters><EPHEMERIS_TYPE>0</EPHEMERIS_TYPE><CLASSIFICATION_TYPE>U</CLASSIFICATION_TYPE><NORAD_CAT_ID>54131</NORAD_CAT_ID><ELEMENT_SET_NO>999</ELEMENT_SET_NO><REV_AT_EPOCH>4185</REV_AT_EPOCH><BSTAR>.8664E-2</BSTAR><MEAN_MOTION_DOT>.3484E-4</MEAN_MOTION_DOT><MEAN_MOTION_DDOT>0</MEAN_MOTION_DDOT></tleParameters></data></segment></body></omm>
<omm id="CCSDS_OMM_VERS" version="2.0">
<header><CREATION_DATE/><ORIGINATOR/></header><body><segment><metadata><OBJECT_NAME>ONEWEB-0514</OBJECT_NAME><OBJECT_ID>2022-138V</OBJECT_ID><CENTER_NAME>EARTH</CENTER_NAME><REF_FRAME>TEME</REF_FRAME><TIME_SYSTEM>UTC</TIME_SYSTEM><MEAN_ELEMENT_THEORY>SGP4</MEAN_ELEMENT_THEORY></metadata><data><meanElements><EPOCH>2023-08-22T23:02:29.701536</EPOCH><MEAN_MOTION>13.19724365</MEAN_MOTION><ECCENTRICITY>.0001858</ECCENTRICITY><INCLINATION>87.9289</INCLINATION><RA_OF_ASC_NODE>149.7844</RA_OF_ASC_NODE><ARG_OF_PERICENTER>74.8163</ARG_OF_PERICENTER><MEAN_ANOMALY>285.3175</MEAN_ANOMALY></meanElements><tleParameters><EPHEMERIS_TYPE>0</EPHEMERIS_TYPE><CLASSIFICATION_TYPE>U</CLASSIFICATION_TYPE><NORAD_CAT_ID>54132</NORAD_CAT_ID><ELEMENT_SET_NO>999</ELEMENT_SET_NO><REV_AT_EPOCH>4194</REV_AT_EPOCH><BSTAR>.98396E-4</BSTAR><MEAN_MOTION_DOT>.52E-6</MEAN_MOTION_DOT><MEAN_MOTION_DDOT>0</MEAN_MOTION_DDOT></tleParameters></data></segment></body></omm>
<omm id="CCSDS_OMM_VERS" version="2.0">
<header><CREATION_DATE/><ORIGINATOR/></header><body><segment><metadata><OBJECT_NAME>ONEWEB-0515</OBJECT_NAME><OBJECT_ID>2022-138W</OBJECT_ID><CENTER_NAME>EARTH</CENTER_NAME><REF_FRAME>TEME</REF_FRAME><TIME_SYSTEM>UTC</TIME_SYSTEM><MEAN_ELEMENT_THEORY>SGP4</MEAN_ELEMENT_THEORY></metadata><data><meanElements><EPOCH>2023-08-23T04:34:31.893888</EPOCH><MEAN_MOTION>13.20800835</MEAN_MOTION><ECCENTRICITY>.0002575</ECCENTRICITY><INCLINATION>87.9128</INCLINATION><RA_OF_ASC_NODE>119.3000</RA_OF_ASC_NODE><ARG_OF_PERICENTER>72.4719</ARG_OF_PERICENTER><MEAN_ANOMALY>287.6695</MEAN_ANOMALY></meanElements><tleParameters><EPHEMERIS_TYPE>0</EPHEMERIS_TYPE><CLASSIFICATION_TYPE>U</CLASSIFICATION_TYPE><NORAD_CAT_ID>54133</NORAD_CAT_ID><ELEMENT_SET_NO>999</ELEMENT_SET_NO><REV_AT_EPOCH>4434</REV_AT_EPOCH><BSTAR>-.15649E-1</BSTAR><MEAN_MOTION_DOT>-.6348E-4</MEAN_MOTION_DOT><MEAN_MOTION_DDOT>0</MEAN_MOTION_DDOT></tleParameters></data></segment></body></omm>
<omm id="CCSDS_OMM_VERS" version="2.0">
<header><CREATION_DATE/><ORIGINATOR/></header><body><segment><metadata><OBJECT_NAME>ONEWEB-0516</OBJECT_NAME><OBJECT_ID>2022-138X</OBJECT_ID><CENTER_NAME>EARTH</CENTER_NAME><REF_FRAME>TEME</REF_FRAME><TIME_SYSTEM>UTC</TIME_SYSTEM><MEAN_ELEMENT_THEORY>SGP4</MEAN_ELEMENT_THEORY></metadata><data><meanElements><EPOCH>2023-08-22T07:52:40.387872</EPOCH><MEAN_MOTION>13.19732771</MEAN_MOTION><ECCENTRICITY>.0002287</ECCENTRICITY><INCLINATION>87.9288</INCLINATION><RA_OF_ASC_NODE>149.9065</RA_OF_ASC_NODE><ARG_OF_PERICENTER>75.5895</ARG_OF_PERICENTER><MEAN_ANOMALY>284.5491</MEAN_ANOMALY></meanElements><tleParameters><EPHEMERIS_TYPE>0</EPHEMERIS_TYPE><CLASSIFICATION_TYPE>U</CLASSIFICATION_TYPE><NORAD_CAT_ID>54134</NORAD_CAT_ID><ELEMENT_SET_NO>999</ELEMENT_SET_NO><REV_AT_EPOCH>4186</REV_AT_EPOCH><BSTAR>-.41555E-2</BSTAR><MEAN_MOTION_DOT>-.1651E-4</MEAN_MOTION_DOT><MEAN_MOTION_DDOT>0</MEAN_MOTION_DDOT></tleParameters></data></segment></body></omm>

</ndm>
