ONEWEB-0509             
1 54127U 22138Q   23235.33494079  .00000253  00000+0  59985-3 0  9997
2 54127  87.9289 149.7089 0001769  81.4635 278.6698 13.19726376 41974
ONEWEB-0510             
1 54128U 22138R   23233.76390096  .00000108  00000+0  23397-3 0  9994
2 54128  87.9277 119.5168 0002181  88.2808 271.8575 13.20772968 44164
ONEWEB-0511             
1 54129U 22138S   23235.33071363  .00000146  00000+0  33225-3 0  9996
2 54129  87.9288 149.7092 0001471  71.1821 288.9471 13.19728905 42000
ONEWEB-0512             
1 54130U 22138T   23235.32230891  .00000100  00000+0  21799-3 0  9993
2 54130  87.9288 149.7109 0001692  96.0051 264.1275 13.19726508 41977
ONEWEB-0513             
1 54131U 22138U   23235.29385014  .00003484  00000+0  86640-2 0  9991
2 54131  87.9286 149.7209 0001298 100.7371 259.3908 13.19752273 41851
ONEWEB-0514             
1 54132U 22138V   23234.96006599  .00000052  00000+0  98396-4 0  9994
2 54132  87.9289 149.7844 0001858  74.8163 285.3175 13.19724365 41948
ONEWEB-0515             
1 54133U 22138W   23235.19064692 -.00006348  00000+0 -15649-1 0  9992
2 54133  87.9128 119.3000 0002575  72.4719 287.6695 13.20800835 44344
ONEWEB-0516             
1 54134U 22138X   23234.32824523 -.00001651  00000+0 -41555-2 0  9992
2 54134  87.9288 149.9065 0002287  75.5895 284.5491 13.19732771 41866
